[
    {
        "Altitude(m)": 553490.0708283493,
        "Argument of Periapsis(deg)": 0.019868973332140504,
        "Eccentricity": 0.0,
        "Inclination(deg)": 53.0,
        "Latitude(deg)": 10.606571895866688,
        "Longitude(deg)": 119.55218489012661,
        "Mean Anomaly(deg)": 166.6384786027328,
        "RAAN(deg)": 49.97043010558406,
        "Satellite Name": "Starlink Shell 1 228",
        "Satellite Number": 228,
        "Semi-Major Axis(m)": 6931778.249405717,
        "Time(s)": 570
    },
    {
        "Altitude(m)": 553498.0692350273,
        "Argument of Periapsis(deg)": 0.02021755181165174,
        "Eccentricity": 0.0,
        "Inclination(deg)": 53.0,
        "Latitude(deg)": 10.107394419782729,
        "Longitude(deg)": 119.90015826516526,
        "Mean Anomaly(deg)": 167.26530980628948,
        "RAAN(deg)": 49.96991133550658,
        "Satellite Name": "Starlink Shell 1 228",
        "Satellite Number": 228,
        "Semi-Major Axis(m)": 6931778.249405717,
        "Time(s)": 580
    },
    {
        "Altitude(m)": 553508.7533833254,
        "Argument of Periapsis(deg)": 0.020566130291162974,
        "Eccentricity": 0.0,
        "Inclination(deg)": 53.0,
        "Latitude(deg)": 9.60774910523397,
        "Longitude(deg)": 120.24692863424977,
        "Mean Anomaly(deg)": 167.8921410098462,
        "RAAN(deg)": 49.969392565429104,
        "Satellite Name": "Starlink Shell 1 228",
        "Satellite Number": 228,
        "Semi-Major Axis(m)": 6931778.249405717,
        "Time(s)": 590
    },
    {
        "Altitude(m)": 553522.1412485959,
        "Argument of Periapsis(deg)": 0.020914708770674213,
        "Eccentricity": 0.0,
        "Inclination(deg)": 53.0,
        "Latitude(deg)": 9.107661237804354,
        "Longitude(deg)": 120.59255853461428,
        "Mean Anomaly(deg)": 168.5189722134029,
        "RAAN(deg)": 49.968873795351634,
        "Satellite Name": "Starlink Shell 1 228",
        "Satellite Number": 228,
        "Semi-Major Axis(m)": 6931778.249405717,
        "Time(s)": 600
    },
    {
        "Altitude(m)": 553538.2495501852,
        "Argument of Periapsis(deg)": 0.021263287250185448,
        "Eccentricity": 0.0,
        "Inclination(deg)": 53.0,
        "Latitude(deg)": 8.607155862439457,
        "Longitude(deg)": 120.93711000679463,
        "Mean Anomaly(deg)": 169.1458034169596,
        "RAAN(deg)": 49.968355025274164,
        "Satellite Name": "Starlink Shell 1 228",
        "Satellite Number": 228,
        "Semi-Major Axis(m)": 6931778.249405717,
        "Time(s)": 610
    },
    {
        "Altitude(m)": 553557.0937403211,
        "Argument of Periapsis(deg)": 0.021611865729696686,
        "Eccentricity": 0.0,
        "Inclination(deg)": 53.0,
        "Latitude(deg)": 8.106257797146785,
        "Longitude(deg)": 121.28064512532423,
        "Mean Anomaly(deg)": 169.77263462051636,
        "RAAN(deg)": 49.96783625519669,
        "Satellite Name": "Starlink Shell 1 228",
        "Satellite Number": 228,
        "Semi-Major Axis(m)": 6931778.249405717,
        "Time(s)": 620
    },
    {
        "Altitude(m)": 553578.6879936884,
        "Argument of Periapsis(deg)": 0.02196044420920792,
        "Eccentricity": 0.0,
        "Inclination(deg)": 53.0,
        "Latitude(deg)": 7.6049916464863845,
        "Longitude(deg)": 121.62322484836537,
        "Mean Anomaly(deg)": 170.39946582407305,
        "RAAN(deg)": 49.96731748511921,
        "Satellite Name": "Starlink Shell 1 228",
        "Satellite Number": 228,
        "Semi-Major Axis(m)": 6931778.249405717,
        "Time(s)": 630
    },
    {
        "Altitude(m)": 553603.0451975795,
        "Argument of Periapsis(deg)": 0.02230902268871916,
        "Eccentricity": 0.0,
        "Inclination(deg)": 53.0,
        "Latitude(deg)": 7.103381814858364,
        "Longitude(deg)": 121.96491038870226,
        "Mean Anomaly(deg)": 171.02629702762977,
        "RAAN(deg)": 49.96679871504175,
        "Satellite Name": "Starlink Shell 1 228",
        "Satellite Number": 228,
        "Semi-Major Axis(m)": 6931778.249405717,
        "Time(s)": 640
    },
    {
        "Altitude(m)": 553630.1769427325,
        "Argument of Periapsis(deg)": 0.022657601168230398,
        "Eccentricity": 0.0,
        "Inclination(deg)": 53.0,
        "Latitude(deg)": 6.601452519605024,
        "Longitude(deg)": 122.30576206318356,
        "Mean Anomaly(deg)": 171.65312823118649,
        "RAAN(deg)": 49.96627994496427,
        "Satellite Name": "Starlink Shell 1 228",
        "Satellite Number": 228,
        "Semi-Major Axis(m)": 6931778.249405717,
        "Time(s)": 650
    },
    {
        "Altitude(m)": 553660.0935147704,
        "Argument of Periapsis(deg)": 0.023006179647741636,
        "Eccentricity": 0.0,
        "Inclination(deg)": 53.0,
        "Latitude(deg)": 6.0992278039350625,
        "Longitude(deg)": 122.64583982304339,
        "Mean Anomaly(deg)": 172.2799594347432,
        "RAAN(deg)": 49.965761174886794,
        "Satellite Name": "Starlink Shell 1 228",
        "Satellite Number": 228,
        "Semi-Major Axis(m)": 6931778.249405717,
        "Time(s)": 660
    },
    {
        "Altitude(m)": 553692.8038863244,
        "Argument of Periapsis(deg)": 0.023354758127252868,
        "Eccentricity": 0.0,
        "Inclination(deg)": 53.0,
        "Latitude(deg)": 5.596731549683791,
        "Longitude(deg)": 122.98520378413119,
        "Mean Anomaly(deg)": 172.90679063829987,
        "RAAN(deg)": 49.96524240480932,
        "Satellite Name": "Starlink Shell 1 228",
        "Satellite Number": 228,
        "Semi-Major Axis(m)": 6931778.249405717,
        "Time(s)": 670
    },
    {
        "Altitude(m)": 553728.3157097684,
        "Argument of Periapsis(deg)": 0.023703336606764106,
        "Eccentricity": 0.0,
        "Inclination(deg)": 53.0,
        "Latitude(deg)": 5.093987489922224,
        "Longitude(deg)": 123.32391324418072,
        "Mean Anomaly(deg)": 173.53362184185661,
        "RAAN(deg)": 49.964723634731854,
        "Satellite Name": "Starlink Shell 1 228",
        "Satellite Number": 228,
        "Semi-Major Axis(m)": 6931778.249405717,
        "Time(s)": 680
    },
    {
        "Altitude(m)": 553766.6353106537,
        "Argument of Periapsis(deg)": 0.024051915086275345,
        "Eccentricity": 0.0,
        "Inclination(deg)": 53.0,
        "Latitude(deg)": 4.591019221424384,
        "Longitude(deg)": 123.66202721286804,
        "Mean Anomaly(deg)": 174.16045304541336,
        "RAAN(deg)": 49.96420486465438,
        "Satellite Name": "Starlink Shell 1 228",
        "Satellite Number": 228,
        "Semi-Major Axis(m)": 6931778.249405717,
        "Time(s)": 690
    },
    {
        "Altitude(m)": 553807.7676817796,
        "Argument of Periapsis(deg)": 0.024400493565786583,
        "Eccentricity": 0.0,
        "Inclination(deg)": 53.0,
        "Latitude(deg)": 4.087850217005387,
        "Longitude(deg)": 123.99960494179071,
        "Mean Anomaly(deg)": 174.78728424897005,
        "RAAN(deg)": 49.9636860945769,
        "Satellite Name": "Starlink Shell 1 228",
        "Satellite Number": 228,
        "Semi-Major Axis(m)": 6931778.249405717,
        "Time(s)": 700
    },
    {
        "Altitude(m)": 553851.7164779189,
        "Argument of Periapsis(deg)": 0.024749072045297815,
        "Eccentricity": 0.0,
        "Inclination(deg)": 53.0,
        "Latitude(deg)": 3.584503837743797,
        "Longitude(deg)": 124.33670494149767,
        "Mean Anomaly(deg)": 175.41411545252677,
        "RAAN(deg)": 49.96316732449944,
        "Satellite Name": "Starlink Shell 1 228",
        "Satellite Number": 228,
        "Semi-Major Axis(m)": 6931778.249405717,
        "Time(s)": 710
    },
    {
        "Altitude(m)": 553898.484011237,
        "Argument of Periapsis(deg)": 0.025097650524809053,
        "Eccentricity": 0.0,
        "Inclination(deg)": 53.0,
        "Latitude(deg)": 3.081003345096797,
        "Longitude(deg)": 124.67338551132447,
        "Mean Anomaly(deg)": 176.0409466560835,
        "RAAN(deg)": 49.96264855442196,
        "Satellite Name": "Starlink Shell 1 228",
        "Satellite Number": 228,
        "Semi-Major Axis(m)": 6931778.249405717,
        "Time(s)": 720
    },
    {
        "Altitude(m)": 553948.0712473532,
        "Argument of Periapsis(deg)": 0.02544622900432029,
        "Eccentricity": 0.0,
        "Inclination(deg)": 53.0,
        "Latitude(deg)": 2.5773719129214525,
        "Longitude(deg)": 125.00970526916393,
        "Mean Anomaly(deg)": 176.6677778596402,
        "RAAN(deg)": 49.962129784344484,
        "Satellite Name": "Starlink Shell 1 228",
        "Satellite Number": 228,
        "Semi-Major Axis(m)": 6931778.249405717,
        "Time(s)": 730
    },
    {
        "Altitude(m)": 554000.4778021056,
        "Argument of Periapsis(deg)": 0.02579480748383153,
        "Eccentricity": 0.0,
        "Inclination(deg)": 53.0,
        "Latitude(deg)": 2.0736326394138143,
        "Longitude(deg)": 125.34572216830722,
        "Mean Anomaly(deg)": 177.29460906319693,
        "RAAN(deg)": 49.96161101426701,
        "Satellite Name": "Starlink Shell 1 228",
        "Satellite Number": 228,
        "Semi-Major Axis(m)": 6931778.249405717,
        "Time(s)": 740
    },
    {
        "Altitude(m)": 554055.7019389527,
        "Argument of Periapsis(deg)": 0.026143385963342765,
        "Eccentricity": 0.0,
        "Inclination(deg)": 53.0,
        "Latitude(deg)": 1.5698085589761623,
        "Longitude(deg)": 125.68149402710718,
        "Mean Anomaly(deg)": 177.92144026675365,
        "RAAN(deg)": 49.961092244189544,
        "Satellite Name": "Starlink Shell 1 228",
        "Satellite Number": 228,
        "Semi-Major Axis(m)": 6931778.249405717,
        "Time(s)": 750
    }
]